STARLINK-2022           
1 47643U 21012Z   24183.05792068  .00019699  00000+0  13373-2 0  9997
2 47643  53.0548 299.7843 0001408  92.9091 267.2059 15.06410974186807
